{
    "links": {
        "self": "http://www.neowsapp.com/rest/v1/neo/3547805?api_key=iIulBulltgU6a56xZRHN4H3l9WmuAYTsLGpBGhQ2"
    },
    "id": "3547805",
    "neo_reference_id": "3547805",
    "name": "(2010 TN3)",
    "designation": "2010 TN3",
    "nasa_jpl_url": "http://ssd.jpl.nasa.gov/sbdb.cgi?sstr=3547805",
    "absolute_magnitude_h": 22.3,
    "estimated_diameter": {
        "kilometers": {
            "estimated_diameter_min": 0.0921626549,
            "estimated_diameter_max": 0.2060819612
        },
        "meters": {
            "estimated_diameter_min": 92.1626548503,
            "estimated_diameter_max": 206.0819612321
        },
        "miles": {
            "estimated_diameter_min": 0.057267201,
            "estimated_diameter_max": 0.1280533543
        },
        "feet": {
            "estimated_diameter_min": 302.370924539,
            "estimated_diameter_max": 676.1219416887
        }
    },
    "is_potentially_hazardous_asteroid": false,
    "close_approach_data": [
        {
            "close_approach_date": "2010-10-01",
            "close_approach_date_full": "2010-Oct-01 03:18",
            "epoch_date_close_approach": 1285903080000,
            "relative_velocity": {
                "kilometers_per_second": "13.8407503954",
                "kilometers_per_hour": "49826.7014233939",
                "miles_per_hour": "30960.3745594416"
            },
            "miss_distance": {
                "astronomical": "0.2504190809",
                "lunar": "97.4130224701",
                "kilometers": "37462161.109997683",
                "miles": "23277907.5028387054"
            },
            "orbiting_body": "Earth"
        }
    ],
    "orbital_data": {
        "orbit_id": "10",
        "orbit_determination_date": "2017-04-06 08:56:27",
        "first_observation_date": "2010-10-02",
        "last_observation_date": "2010-10-10",
        "data_arc_in_days": 8,
        "observations_used": 42,
        "orbit_uncertainty": "9",
        "minimum_orbit_intersection": ".250176",
        "jupiter_tisserand_invariant": "4.326",
        "epoch_osculation": "2455475.5",
        "eccentricity": ".2040273546077402",
        "semi_major_axis": "1.542002084442863",
        "inclination": "26.77051529411623",
        "ascending_node_longitude": "193.1961881033336",
        "orbital_period": "699.4003866213222",
        "perihelion_distance": "1.227391478354364",
        "perihelion_argument": "149.8548927404295",
        "aphelion_distance": "1.856612690531361",
        "perihelion_time": "2455440.538337065765",
        "mean_anomaly": "17.99569874006828",
        "mean_motion": ".5147266242432255",
        "equinox": "J2000",
        "orbit_class": {
            "orbit_class_type": "AMO",
            "orbit_class_description": "Near-Earth asteroid orbits similar to that of 1221 Amor",
            "orbit_class_range": "1.017 AU < q (perihelion) < 1.3 AU"
        }
    },
    "is_sentry_object": false
}